GPS BIIF-4              
1 39166U 13023A   26116.33094632 -.00000048  00000+0  00000+0 0  9991
2 39166  54.5462 271.0846 0141890  50.6724 310.5447  2.00563766 94842
INSAT-3D                
1 39216U 13038B   26117.22683675 -.00000347  00000+0  00000+0 0  9995
2 39216   1.7962  83.1504 0001503 283.7007  59.5527  1.00271797 46563
GPS BIIF-5              
1 39533U 14008A   26116.83025517  .00000062  00000+0  00000+0 0  9999
2 39533  53.6447 151.4146 0083805 230.1392 129.1882  2.00556494 88653
LUCH 5V                 
1 39727U 14023A   26116.95997187 -.00000276  00000+0  00000+0 0  9993
2 39727   5.0096  70.2468 0002257 339.3730 245.6892  1.00271811 43847
GPS BIIF-6              
1 39741U 14026A   26116.10890750 -.00000078  00000+0  00000+0 0  9997
2 39741  56.5221 333.5452 0038948 326.6709  33.1214  2.00564801 87495
GPS BIIF-7              
1 40105U 14045A   26117.19658757  .00000024  00000+0  00000+0 0  9993
2 40105  55.3206  90.4949 0031671 119.1316 241.1707  2.00554999 85051
GSAT0201 (GALILEO 5)    
1 40128U 14050A   26116.13529482 -.00000064  00000+0  00000+0 0  9994
2 40128  48.9332 275.5670 1666333 177.3572 183.6448  1.85519973 77352
GSAT0202 (GALILEO 6)    
1 40129U 14050B   26116.92999515 -.00000073  00000+0  00000+0 0  9990
2 40129  48.9493 274.6194 1667557 178.1198 182.5914  1.85520682 79531
GPS BIIF-8              
1 40294U 14068A   26117.07053014 -.00000103  00000+0  00000+0 0  9998
2 40294  56.9545  32.9243 0065293  68.8787 291.8193  2.00573025 84185
GLONASS-K 2             
1 40315U 14075A   26117.15145856 -.00000001  00000+0  00000+0 0  9992
2 40315  63.6140 192.1381 0021867 210.0421 149.8851  2.13101300 88760
GPS BIIF-9              
1 40534U 15013A   26116.70644663 -.00000036  00000+0  00000+0 0  9996
2 40534  53.1742 206.3067 0108882  39.9769 320.8462  2.00554396 80797
GSAT0203 (GALILEO 7)    
1 40544U 15017A   26111.90090206 -.00000083  00000+0  00000+0 0  9998
2 40544  56.8042 343.1309 0002546 315.4442  44.5780  1.70475713 68240
GSAT0204 (GALILEO 8)    
1 40545U 15017B   26115.08949468 -.00000090  00000+0  00000+0 0  9993
2 40545  56.8095 343.0621 0001552 296.0698  63.9535  1.70475480 31343
GPS BIIF-10             
1 40730U 15033A   26116.86594440 -.00000056  00000+0  00000+0 0  9992
2 40730  54.0243 269.2010 0115005  29.8930 330.7227  2.00558905 78965
METEOSAT-11 (MSG-4)     
1 40732U 15034A   26117.11503289  .00000055  00000+0  00000+0 0  9993
2 40732   3.0740  71.3738 0001589 344.8606 209.8520  1.00264233  6705
GSAT0205 (GALILEO 9)    
1 40889U 15045A   26115.63255192 -.00000038  00000+0  00000+0 0  9992
2 40889  54.9613 223.1764 0005159 266.9978  92.9342  1.67410754 66085
GSAT0206 (GALILEO 10)   
1 40890U 15045B   26115.66468946 -.00000038  00000+0  00000+0 0  9990
2 40890  54.9612 223.0540 0002188  38.1287 321.8788  1.70473961 66146
